[{"OBJECT_NAME":"ONEWEB-0564","OBJECT_ID":"2023-029F","EPOCH":"2026-02-22T03:15:36.061920","MEAN_MOTION":13.20771414,"ECCENTRICITY":0.0001626,"INCLINATION":87.9188,"RA_OF_ASC_NODE":297.432,"ARG_OF_PERICENTER":66.509,"MEAN_ANOMALY":293.6214,"EPHEMERIS_TYPE":0,"CLASSIFICATION_TYPE":"U","NORAD_CAT_ID":55801,"ELEMENT_SET_NO":999,"REV_AT_EPOCH":14596,"BSTAR":-0.00012935,"MEAN_MOTION_DOT":-4.0e-7,"MEAN_MOTION_DDOT":0},{"OBJECT_NAME":"ONEWEB-0638","OBJECT_ID":"2023-029G","EPOCH":"2026-02-22T03:37:04.814688","MEAN_MOTION":13.14505019,"ECCENTRICITY":0.0001258,"INCLINATION":87.9001,"RA_OF_ASC_NODE":312.7076,"ARG_OF_PERICENTER":60.8953,"MEAN_ANOMALY":299.2302,"EPHEMERIS_TYPE":0,"CLASSIFICATION_TYPE":"U","NORAD_CAT_ID":55802,"ELEMENT_SET_NO":999,"REV_AT_EPOCH":14428,"BSTAR":0.00011331,"MEAN_MOTION_DOT":5.5e-7,"MEAN_MOTION_DDOT":0},{"OBJECT_NAME":"ONEWEB-0639","OBJECT_ID":"2023-029H","EPOCH":"2026-02-21T18:58:09.346080","MEAN_MOTION":13.19726109,"ECCENTRICITY":0.0001653,"INCLINATION":87.9246,"RA_OF_ASC_NODE":327.959,"ARG_OF_PERICENTER":115.3944,"MEAN_ANOMALY":244.736,"EPHEMERIS_TYPE":0,"CLASSIFICATION_TYPE":"U","NORAD_CAT_ID":55803,"ELEMENT_SET_NO":999,"REV_AT_EPOCH":14368,"BSTAR":3.7597e-5,"MEAN_MOTION_DOT":2.8e-7,"MEAN_MOTION_DDOT":0},{"OBJECT_NAME":"ONEWEB-0640","OBJECT_ID":"2023-029J","EPOCH":"2026-02-22T03:50:44.831040","MEAN_MOTION":13.1450545,"ECCENTRICITY":8.83e-5,"INCLINATION":87.9002,"RA_OF_ASC_NODE":312.696,"ARG_OF_PERICENTER":73.9138,"MEAN_ANOMALY":286.2089,"EPHEMERIS_TYPE":0,"CLASSIFICATION_TYPE":"U","NORAD_CAT_ID":55804,"ELEMENT_SET_NO":999,"REV_AT_EPOCH":14430,"BSTAR":0.00075049,"MEAN_MOTION_DOT":2.91e-6,"MEAN_MOTION_DDOT":0},{"OBJECT_NAME":"ONEWEB-0641","OBJECT_ID":"2023-029K","EPOCH":"2026-02-21T18:51:19.631232","MEAN_MOTION":13.1972496,"ECCENTRICITY":0.0001752,"INCLINATION":87.9252,"RA_OF_ASC_NODE":327.9458,"ARG_OF_PERICENTER":84.857,"MEAN_ANOMALY":275.2762,"EPHEMERIS_TYPE":0,"CLASSIFICATION_TYPE":"U","NORAD_CAT_ID":55805,"ELEMENT_SET_NO":999,"REV_AT_EPOCH":14369,"BSTAR":0.00024023,"MEAN_MOTION_DOT":1.09e-6,"MEAN_MOTION_DDOT":0},{"OBJECT_NAME":"ONEWEB-0642","OBJECT_ID":"2023-029L","EPOCH":"2026-02-22T03:50:23.392608","MEAN_MOTION":13.19725098,"ECCENTRICITY":0.0001882,"INCLINATION":87.9246,"RA_OF_ASC_NODE":327.8871,"ARG_OF_PERICENTER":106.356,"MEAN_ANOMALY":253.778,"EPHEMERIS_TYPE":0,"CLASSIFICATION_TYPE":"U","NORAD_CAT_ID":55806,"ELEMENT_SET_NO":999,"REV_AT_EPOCH":14373,"BSTAR":0.00018182,"MEAN_MOTION_DOT":8.6e-7,"MEAN_MOTION_DDOT":0},{"OBJECT_NAME":"ONEWEB-0643","OBJECT_ID":"2023-029M","EPOCH":"2026-02-22T03:07:21.857376","MEAN_MOTION":13.14502575,"ECCENTRICITY":0.0001943,"INCLINATION":87.9007,"RA_OF_ASC_NODE":312.6888,"ARG_OF_PERICENTER":99.8938,"MEAN_ANOMALY":260.2412,"EPHEMERIS_TYPE":0,"CLASSIFICATION_TYPE":"U","NORAD_CAT_ID":55807,"ELEMENT_SET_NO":999,"REV_AT_EPOCH":14427,"BSTAR":-0.00094358,"MEAN_MOTION_DOT":-3.37e-6,"MEAN_MOTION_DDOT":0},{"OBJECT_NAME":"ONEWEB-0644","OBJECT_ID":"2023-029N","EPOCH":"2026-02-21T18:37:41.504448","MEAN_MOTION":13.19725433,"ECCENTRICITY":0.000179,"INCLINATION":87.924,"RA_OF_ASC_NODE":327.971,"ARG_OF_PERICENTER":91.2606,"MEAN_ANOMALY":268.8731,"EPHEMERIS_TYPE":0,"CLASSIFICATION_TYPE":"U","NORAD_CAT_ID":55808,"ELEMENT_SET_NO":999,"REV_AT_EPOCH":14368,"BSTAR":0.00036428,"MEAN_MOTION_DOT":1.59e-6,"MEAN_MOTION_DDOT":0},{"OBJECT_NAME":"ONEWEB-0645","OBJECT_ID":"2023-029P","EPOCH":"2026-02-21T19:09:30.084768","MEAN_MOTION":13.19722836,"ECCENTRICITY":0.0001347,"INCLINATION":87.9241,"RA_OF_ASC_NODE":327.9586,"ARG_OF_PERICENTER":90.9793,"MEAN_ANOMALY":269.1494,"EPHEMERIS_TYPE":0,"CLASSIFICATION_TYPE":"U","NORAD_CAT_ID":55809,"ELEMENT_SET_NO":999,"REV_AT_EPOCH":14368,"BSTAR":9.4161e-6,"MEAN_MOTION_DOT":1.7e-7,"MEAN_MOTION_DDOT":0},{"OBJECT_NAME":"ONEWEB-0646","OBJECT_ID":"2023-029Q","EPOCH":"2026-02-21T17:45:22.011840","MEAN_MOTION":13.197258,"ECCENTRICITY":0.00017639,"INCLINATION":87.9244,"RA_OF_ASC_NODE":327.9697,"ARG_OF_PERICENTER":90.8735,"MEAN_ANOMALY":269.26,"EPHEMERIS_TYPE":0,"CLASSIFICATION_TYPE":"U","NORAD_CAT_ID":55810,"ELEMENT_SET_NO":999,"REV_AT_EPOCH":14366,"BSTAR":-8.0983694e-5,"MEAN_MOTION_DOT":-1.9e-7,"MEAN_MOTION_DDOT":0},{"OBJECT_NAME":"ONEWEB-0648","OBJECT_ID":"2023-029R","EPOCH":"2026-02-21T19:03:15.261696","MEAN_MOTION":13.14504157,"ECCENTRICITY":0.0001278,"INCLINATION":87.9014,"RA_OF_ASC_NODE":312.7199,"ARG_OF_PERICENTER":117.4192,"MEAN_ANOMALY":242.7068,"EPHEMERIS_TYPE":0,"CLASSIFICATION_TYPE":"U","NORAD_CAT_ID":55811,"ELEMENT_SET_NO":999,"REV_AT_EPOCH":14423,"BSTAR":0.00056233,"MEAN_MOTION_DOT":2.21e-6,"MEAN_MOTION_DDOT":0},{"OBJECT_NAME":"ONEWEB-0649","OBJECT_ID":"2023-029S","EPOCH":"2026-02-21T18:21:45.575712","MEAN_MOTION":13.19724705,"ECCENTRICITY":0.0001547,"INCLINATION":87.925,"RA_OF_ASC_NODE":327.9609,"ARG_OF_PERICENTER":93.4435,"MEAN_ANOMALY":266.6875,"EPHEMERIS_TYPE":0,"CLASSIFICATION_TYPE":"U","NORAD_CAT_ID":55812,"ELEMENT_SET_NO":999,"REV_AT_EPOCH":14370,"BSTAR":0.00022104,"MEAN_MOTION_DOT":1.01e-6,"MEAN_MOTION_DDOT":0},{"OBJECT_NAME":"ONEWEB-0650","OBJECT_ID":"2023-029T","EPOCH":"2026-02-21T18:14:56.331744","MEAN_MOTION":13.1972615,"ECCENTRICITY":0.0001685,"INCLINATION":87.9244,"RA_OF_ASC_NODE":327.9656,"ARG_OF_PERICENTER":96.155,"MEAN_ANOMALY":263.9775,"EPHEMERIS_TYPE":0,"CLASSIFICATION_TYPE":"U","NORAD_CAT_ID":55813,"ELEMENT_SET_NO":999,"REV_AT_EPOCH":14367,"BSTAR":9.352e-5,"MEAN_MOTION_DOT":5.0e-7,"MEAN_MOTION_DDOT":0},{"OBJECT_NAME":"ONEWEB-0652","OBJECT_ID":"2023-029U","EPOCH":"2026-02-22T03:43:54.429312","MEAN_MOTION":13.14505235,"ECCENTRICITY":0.0001713,"INCLINATION":87.9002,"RA_OF_ASC_NODE":312.6642,"ARG_OF_PERICENTER":74.5847,"MEAN_ANOMALY":285.5472,"EPHEMERIS_TYPE":0,"CLASSIFICATION_TYPE":"U","NORAD_CAT_ID":55814,"ELEMENT_SET_NO":999,"REV_AT_EPOCH":14425,"BSTAR":0.00049408,"MEAN_MOTION_DOT":1.96e-6,"MEAN_MOTION_DDOT":0},{"OBJECT_NAME":"ONEWEB-0653","OBJECT_ID":"2023-029V","EPOCH":"2026-02-21T18:13:01.200288","MEAN_MOTION":13.1450483,"ECCENTRICITY":0.0001549,"INCLINATION":87.9006,"RA_OF_ASC_NODE":312.7331,"ARG_OF_PERICENTER":74.3128,"MEAN_ANOMALY":285.8172,"EPHEMERIS_TYPE":0,"CLASSIFICATION_TYPE":"U","NORAD_CAT_ID":55815,"ELEMENT_SET_NO":999,"REV_AT_EPOCH":14423,"BSTAR":-0.00025241,"MEAN_MOTION_DOT":-8.1e-7,"MEAN_MOTION_DDOT":0},{"OBJECT_NAME":"ONEWEB-0654","OBJECT_ID":"2023-029W","EPOCH":"2026-02-22T03:14:12.909696","MEAN_MOTION":13.1450316,"ECCENTRICITY":0.0001754,"INCLINATION":87.9004,"RA_OF_ASC_NODE":312.6583,"ARG_OF_PERICENTER":67.0217,"MEAN_ANOMALY":293.1097,"EPHEMERIS_TYPE":0,"CLASSIFICATION_TYPE":"U","NORAD_CAT_ID":55816,"ELEMENT_SET_NO":999,"REV_AT_EPOCH":14430,"BSTAR":-0.0011692,"MEAN_MOTION_DOT":-4.21e-6,"MEAN_MOTION_DDOT":0},{"OBJECT_NAME":"ONEWEB-0656","OBJECT_ID":"2023-029X","EPOCH":"2026-02-21T16:11:58.292736","MEAN_MOTION":13.20771365,"ECCENTRICITY":0.00017472,"INCLINATION":87.9199,"RA_OF_ASC_NODE":297.4884,"ARG_OF_PERICENTER":67.2288,"MEAN_ANOMALY":292.903,"EPHEMERIS_TYPE":0,"CLASSIFICATION_TYPE":"U","NORAD_CAT_ID":55817,"ELEMENT_SET_NO":999,"REV_AT_EPOCH":14590,"BSTAR":-3.8033326e-5,"MEAN_MOTION_DOT":-2.0e-8,"MEAN_MOTION_DDOT":0}]
