ONEWEB-0564             
1 55801U 23029F   26053.13583405 -.00000040  00000+0 -12935-3 0  9998
2 55801  87.9188 297.4320 0001626  66.5090 293.6214 13.20771414145962
ONEWEB-0638             
1 55802U 23029G   26053.15075017  .00000055  00000+0  11331-3 0  9999
2 55802  87.9001 312.7076 0001258  60.8953 299.2302 13.14505019144285
ONEWEB-0639             
1 55803U 23029H   26052.79038595  .00000028  00000+0  37597-4 0  9992
2 55803  87.9246 327.9590 0001653 115.3944 244.7360 13.19726109143683
ONEWEB-0640             
1 55804U 23029J   26053.16024110  .00000291  00000+0  75049-3 0  9998
2 55804  87.9002 312.6960 0000883  73.9138 286.2089 13.14505450144302
ONEWEB-0641             
1 55805U 23029K   26052.78564388  .00000109  00000+0  24023-3 0  9996
2 55805  87.9252 327.9458 0001752  84.8570 275.2762 13.19724960143699
ONEWEB-0642             
1 55806U 23029L   26053.15999297  .00000086  00000+0  18182-3 0  9993
2 55806  87.9246 327.8871 0001882 106.3560 253.7780 13.19725098143733
ONEWEB-0643             
1 55807U 23029M   26053.13011409 -.00000337  00000+0 -94358-3 0  9992
2 55807  87.9007 312.6888 0001943  99.8938 260.2412 13.14502575144275
ONEWEB-0644             
1 55808U 23029N   26052.77617482  .00000159  00000+0  36428-3 0  9999
2 55808  87.9240 327.9710 0001790  91.2606 268.8731 13.19725433143683
ONEWEB-0645             
1 55809U 23029P   26052.79826487  .00000017  00000+0  94161-5 0  9992
2 55809  87.9241 327.9586 0001347  90.9793 269.1494 13.19722836143681
ONEWEB-0646             
1 55810U 23029Q   26052.73983810 -.00000019  00000+0 -80984-4 0  9993
2 55810  87.9244 327.9697 0001763  90.8735 269.2600 13.19725800143668
ONEWEB-0648             
1 55811U 23029R   26052.79392664  .00000221  00000+0  56233-3 0  9993
2 55811  87.9014 312.7199 0001278 117.4192 242.7068 13.14504157144230
ONEWEB-0649             
1 55812U 23029S   26052.76511083  .00000101  00000+0  22104-3 0  9996
2 55812  87.9250 327.9609 0001547  93.4435 266.6875 13.19724705143709
ONEWEB-0650             
1 55813U 23029T   26052.76037421  .00000050  00000+0  93520-4 0  9990
2 55813  87.9244 327.9656 0001685  96.1550 263.9775 13.19726150143677
ONEWEB-0652             
1 55814U 23029U   26053.15549108  .00000196  00000+0  49408-3 0  9991
2 55814  87.9002 312.6642 0001713  74.5847 285.5472 13.14505235144250
ONEWEB-0653             
1 55815U 23029V   26052.75904167 -.00000081  00000+0 -25241-3 0  9991
2 55815  87.9006 312.7331 0001549  74.3128 285.8172 13.14504830144236
ONEWEB-0654             
1 55816U 23029W   26053.13487164 -.00000421  00000+0 -11692-2 0  9990
2 55816  87.9004 312.6583 0001754  67.0217 293.1097 13.14503160144300
ONEWEB-0656             
1 55817U 23029X   26052.67498024 -.00000002  00000+0 -38033-4 0  9991
2 55817  87.9199 297.4884 0001747  67.2288 292.9030 13.20771365145904
